ONEWEB-0451             
1 51643U 22012X   23249.39760888  .00000019  00000+0  16134-4 0  9993
2 51643  87.9147 207.5258 0001879  89.9398 270.1949 13.17647078 80023
ONEWEB-0452             
1 51644U 22012Y   23249.39549304  .00000121  00000+0  27776-3 0  9999
2 51644  87.9210 207.5144 0001574  91.0963 269.0349 13.17651132 80031
ONEWEB-0455             
1 51645U 22012Z   23249.33020775  .00000414  00000+0  17750-3 0  9996
2 51645  87.5390 197.9137 0016684 181.7930 178.3203 14.22568092 81806
ONEWEB-0456             
1 51646U 22012AA  23249.70405817 -.00000334  00000+0 -99389-3 0  9993
2 51646  87.8807 237.7195 0002323  87.2248 272.9145 13.10377313 76481
ONEWEB-0457             
1 51647U 22012AB  23249.68180159 -.00000494  00000+0 -14503-2 0  9991
2 51647  87.8816 237.7259 0001523  83.7728 276.3573 13.10371130 76482
ONEWEB-0458             
1 51648U 22012AC  23249.70250742 -.00002790  00000+0 -80338-2 0  9991
2 51648  87.8826 237.7340 0002246  91.6193 268.5192 13.10355384 76441
ONEWEB-0461             
1 51649U 22012AD  23249.64439404  .00000059  00000+0  11814-3 0  9997
2 51649  87.9321 207.4110 0001863  81.6056 278.5286 13.17652236 80288
ONEWEB-0463             
1 51650U 22012AE  23249.32377765  .00000034  00000+0  54536-4 0  9997
2 51650  87.9209 207.5432 0001854  79.2869 280.8471 13.17647322 80022
ONEWEB-0464             
1 51651U 22012AF  23249.69930716 -.00002693  00000+0 -77543-2 0  9995
2 51651  87.8826 237.7231 0000933  98.0039 262.1194 13.10355018 76463
ONEWEB-0468             
1 51652U 22012AG  23249.24750583 -.00003245  00000+0 -93351-2 0  9998
2 51652  87.8824 237.8059 0002240  87.0391 273.0992 13.10381658 76380
ONEWEB-0473             
1 51653U 22012AH  23249.92043410 -.00003131  00000+0 -90117-2 0  9999
2 51653  87.8821 237.6757 0001975  92.9461 267.1892 13.10350430 76475
ONEWEB-0474             
1 51654U 22012AJ  23249.68338859 -.00000492  00000+0 -14450-2 0  9990
2 51654  87.8892 237.6809 0002233  93.6689 266.4694 13.10371348 76439
ONEWEB-0475             
1 51655U 22012AK  23249.86589890  .00000136  00000+0  31591-3 0  9993
2 51655  87.9212 207.4134 0002113  89.9205 270.2168 13.17649350 80119
ONEWEB-0490             
1 54113U 22138A   23249.09937604  .00000075  00000+0  15467-3 0  9995
2 54113  87.9276 146.9874 0001974  78.9697 281.1657 13.19727861 42945
ONEWEB-0492             
1 54114U 22138B   23249.12461238  .00000028  00000+0  37003-4 0  9994
2 54114  87.9274 146.9784 0002189  82.1675 277.9706 13.19722186 42950
ONEWEB-0495             
1 54115U 22138C   23248.95090003 -.00000278  00000+0 -72740-3 0  9998
2 54115  87.9273 147.0245 0002025  91.2493 268.8872 13.19717375 42915
ONEWEB-0497             
1 54116U 22138D   23249.19099332  .00000089  00000+0  19020-3 0  9990
2 54116  87.9275 146.9690 0001997  79.0795 281.0562 13.19728133 42935
ONEWEB-0499             
1 54117U 22138E   23249.09778813  .00000058  00000+0  11309-3 0  9996
2 54117  87.9273 146.9862 0001370  90.5833 269.5456 13.19725657 42932
ONEWEB-0500             
1 54118U 22138F   23249.10094069  .00000077  00000+0  16043-3 0  9994
2 54118  87.9278 146.9801 0001975  76.7897 283.3456 13.19727320 42942
ONEWEB-0501             
1 54119U 22138G   23249.13094125  .00002501  00000+0  62137-2 0  9999
2 54119  87.9281 146.9764 0002474  91.9274 268.2142 13.19707802 43799
ONEWEB-0502             
1 54120U 22138H   23249.19255930  .00000061  00000+0  12063-3 0  9993
2 54120  87.9276 146.9574 0001920  89.3854 270.7499 13.19727041 42951
ONEWEB-0503             
1 54121U 22138J   23249.10565602  .00000074  00000+0  15363-3 0  9995
2 54121  87.9274 146.9828 0001845  86.0781 274.0563 13.19721056 42938
ONEWEB-0504             
1 54122U 22138K   23249.24466120  .00000100  00000+0  21870-3 0  9996
2 54122  87.9229 146.9633 0001654  90.4220 269.7102 13.19725355 42967
ONEWEB-0505             
1 54123U 22138L   23249.24152812 -.00000028  00000+0 -10178-3 0  9997
2 54123  87.9277 146.9540 0001589  90.8218 269.3096 13.19729153 42942
ONEWEB-0506             
1 54124U 22138M   23249.14044795  .00000144  00000+0  32741-3 0  9994
2 54124  87.9278 146.9708 0002006  87.1539 272.9824 13.19730030 42923
ONEWEB-0507             
1 54125U 22138N   23249.16097183  .00000118  00000+0  26240-3 0  9994
2 54125  87.9225 146.9989 0001971  84.3603 275.7754 13.19725757 42976
ONEWEB-0508             
1 54126U 22138P   23249.15779976  .00000213  00000+0  49972-3 0  9994
2 54126  87.9278 146.9751 0002270  94.6218 265.5174 13.19720441 42957
ONEWEB-0509             
1 54127U 22138Q   23249.13255247  .00001894  00000+0  46980-2 0  9994
2 54127  87.9276 146.9771 0002093  81.4337 278.7033 13.19724574 42925
ONEWEB-0510             
1 54128U 22138R   23249.90009989  .00000054  00000+0  10018-3 0  9991
2 54128  87.9247 116.3127 0002195  81.3089 278.8293 13.20769953 45391
ONEWEB-0511             
1 54129U 22138S   23249.73589137 -.00000267  00000+0 -69844-3 0  9990
2 54129  87.9276 146.8587 0001384  84.0325 276.0965 13.19724317 43032
ONEWEB-0512             
1 54130U 22138T   23248.96985872  .00000105  00000+0  23103-3 0  9999
2 54130  87.9270 147.0098 0002075  95.2058 264.9311 13.19731466 42902
ONEWEB-0513             
1 54131U 22138U   23249.24388785 -.00000021  00000+0 -83745-4 0  9990
2 54131  87.9273 146.9597 0001742 103.4218 256.7109 13.19726606 42823
ONEWEB-0514             
1 54132U 22138V   23249.13728984  .00000169  00000+0  38914-3 0  9996
2 54132  87.9277 146.9786 0001790  75.8361 284.2970 13.19727444 42948
ONEWEB-0515             
1 54133U 22138W   23249.88748253  .00000058  00000+0  11137-3 0  9995
2 54133  87.9101 116.3609 0002386  61.7867 298.3507 13.20771163 45413
ONEWEB-0516             
1 54134U 22138X   23249.11200891  .00000060  00000+0  11773-3 0  9992
2 54134  87.9275 146.9803 0001979  78.5717 281.5638 13.19727383 42945
ONEWEB-0517             
1 54135U 22138Y   23249.24310687  .00000110  00000+0  24124-3 0  9992
2 54135  87.9230 146.9549 0001740  89.1471 270.9861 13.19725962 42968
ONEWEB-0518             
1 54136U 22138Z   23249.11042769  .00000074  00000+0  15191-3 0  9995
2 54136  87.9275 146.9810 0001676  79.1863 280.9458 13.19727604 42947
ONEWEB-0519             
1 54137U 22138AA  23249.13569920  .00000077  00000+0  16041-3 0  9999
2 54137  87.9274 146.9738 0001733  92.2937 267.8394 13.19724714 42951
ONEWEB-0520             
1 54138U 22138AB  23249.24626580  .00000070  00000+0  14231-3 0  9990
2 54138  87.9231 146.9619 0002155  92.4789 267.6591 13.19727675 42955
ONEWEB-0521             
1 54139U 22138AC  23249.12780551 -.00000103  00000+0 -29037-3 0  9996
2 54139  87.9263 146.9742 0001348  74.9331 285.1950 13.19735960 43781
ONEWEB-0522             
1 54140U 22138AD  23249.10726388  .00000069  00000+0  13986-3 0  9999
2 54140  87.9275 146.9810 0001950  77.9170 282.2182 13.19720250 42921
ONEWEB-0523             
1 54141U 22138AE  23249.87484955 -.00000014  00000+0 -67233-4 0  9992
2 54141  87.9126 116.3883 0001906  41.2173 318.9104 13.20770057 45416
ONEWEB-0524             
1 54142U 22138AF  23249.40767642  .00000023  00000+0  24629-4 0  9999
2 54142  87.9227 116.4515 0002808  64.4647 295.6777 13.20774234 45358
ONEWEB-0525             
1 54143U 22138AG  23248.97456434  .00000129  00000+0  28879-3 0  9992
2 54143  87.9278 147.0085 0001952  87.4462 272.6894 13.19722638 42920
ONEWEB-0526             
1 54144U 22138AH  23249.15940304  .00000041  00000+0  68957-4 0  9993
2 54144  87.9275 146.9719 0001965  78.2295 281.9058 13.19728987 42924
ONEWEB-0529             
1 54145U 22138AJ  23249.16252322  .00000039  00000+0  63900-4 0  9991
2 54145  87.9274 146.9701 0002134  87.7741 272.3636 13.19721670 42945
ONEWEB-0531             
1 54146U 22138AK  23249.92535279 -.00000066  00000+0 -19427-3 0  9997
2 54146  87.9237 116.3283 0002302  51.0014 309.1324 13.20772981 45427
ONEWEB-0535             
1 54147U 22138AL  23249.11988120  .00000064  00000+0  12707-3 0  9996
2 54147  87.9275 146.9794 0001751  66.9525 293.1792 13.19722944 42953
ONEWEB-0536             
1 54148U 22138AM  23249.91273755  .00000013  00000+0  78239-6 0  9995
2 54148  87.9241 116.3805 0001565  39.2576 320.8670 13.20771112 45413
GSLV R/B                
1 54149U 22138AN  23249.71586132  .00001938  00000+0  20336-3 0  9999
2 54149  87.3789 111.6539 0022965 213.7555 146.2212 14.88804484 47430
ONEWEB-0527             
1 54642U 22166A   23249.83921641 -.00000056  00000+0 -16736-3 0  9990
2 54642  87.9150  85.9895 0001929  83.8328 276.3025 13.21826342 37535
ONEWEB-0528             
1 54643U 22166B   23249.84550869 -.00000314  00000+0 -79179-3 0  9999
2 54643  87.9171  85.9412 0001802  88.3210 271.8131 13.21824974 37542
ONEWEB-0539             
1 54644U 22166C   23249.80768162  .00000076  00000+0  15326-3 0  9990
2 54644  87.9175  85.9485 0001518  96.4193 263.7114 13.21825438 37537
ONEWEB-0540             
1 54645U 22166D   23249.80135688  .00000019  00000+0  14472-4 0  9991
2 54645  87.9175  85.9742 0001539  93.5537 266.5773 13.21827142 37522
ONEWEB-0542             
1 54646U 22166E   23249.81609244  .00000040  00000+0  64239-4 0  9997
2 54646  87.9173  85.9471 0001125  86.9500 273.1763 13.21826866 37533
ONEWEB-0545             
1 54647U 22166F   23249.78244025 -.00000054  00000+0 -16262-3 0  9995
2 54647  87.9174  85.9938 0001431 107.7229 252.4061 13.21824375 37492
ONEWEB-0580             
1 54648U 22166G   23249.83291429  .00000001  00000+0 -29017-4 0  9996
2 54648  87.9172  85.9404 0001093  79.6697 280.4560 13.21826821 37548
ONEWEB-0582             
1 54649U 22166H   23249.79716915  .00000046  00000+0  79520-4 0  9996
2 54649  87.9174  85.9846 0001765  97.8918 262.2416 13.21825421 37515
ONEWEB-0583             
1 54650U 22166J   23249.80978634  .00000032  00000+0  47108-4 0  9990
2 54650  87.9177  85.9895 0002154  84.4322 275.7057 13.21825604 37522
